NOAA 15                 
1 25338U 98030A   23214.38500429  .00000268  00000+0  12971-3 0  9992
2 25338  98.6039 242.6472 0010529 172.5053 187.6287 14.26363646311842
NOAA 18                 
1 28654U 05018A   23214.44840415  .00000231  00000+0  14793-3 0  9993
2 28654  98.9082 288.6122 0013311 246.9086 113.0683 14.12979784938101
NOAA 19                 
1 33591U 09005A   23214.42795886  .00000243  00000+0  15548-3 0  9990
2 33591  99.0968 261.0868 0014898 111.8948 248.3809 14.12796663746474
METOP-B                 
1 38771U 12049A   23214.42424980  .00000161  00000+0  93312-4 0  9996
2 38771  98.6758 273.0195 0001023 101.5685  21.1200 14.21496352564110
SARAL                   
1 39086U 13009A   23213.78850876  .00000160  00000+0  75421-4 0  9998
2 39086  98.5487  38.4147 0002706 127.7667 232.3762 14.32240684545213
METOP-C                 
1 43689U 18087A   23214.43708016  .00000161  00000+0  93391-4 0  9991
2 43689  98.6804 273.1923 0001601 300.7092  59.3928 14.21513801245691
ANGELS                  
1 44876U 19092D   23213.52176367  .00005797  00000+0  25790-3 0  9991
2 44876  97.4778  37.9010 0011273  16.2379 343.9216 15.21822501200518
GAZELLE                 
1 54023U 22127A   23213.67996648  .00000246  00000+0  88116-4 0  9993
2 54023  98.3251 210.4653 0014600 116.3818 243.8873 14.41870693 42930
EOS-6 (OCEANSAT-3)      
1 54361U 22158A   23214.41031630  .00000441  00000+0  13328-3 0  9995
2 54361  98.3542 310.7679 0001151  86.7943 273.3382 14.47003557 36025
